{
    "links": {
        "self": "http://www.neowsapp.com/rest/v1/neo/3842751?api_key=iIulBulltgU6a56xZRHN4H3l9WmuAYTsLGpBGhQ2"
    },
    "id": "3842751",
    "neo_reference_id": "3842751",
    "name": "(2019 KP5)",
    "designation": "2019 KP5",
    "nasa_jpl_url": "http://ssd.jpl.nasa.gov/sbdb.cgi?sstr=3842751",
    "absolute_magnitude_h": 22.7,
    "estimated_diameter": {
        "kilometers": {
            "estimated_diameter_min": 0.0766575574,
            "estimated_diameter_max": 0.1714115092
        },
        "meters": {
            "estimated_diameter_min": 76.6575573531,
            "estimated_diameter_max": 171.4115092306
        },
        "miles": {
            "estimated_diameter_min": 0.0476327831,
            "estimated_diameter_max": 0.1065101409
        },
        "feet": {
            "estimated_diameter_min": 251.5011804664,
            "estimated_diameter_max": 562.3737359442
        }
    },
    "is_potentially_hazardous_asteroid": false,
    "close_approach_data": [
        {
            "close_approach_date": "2012-12-09",
            "close_approach_date_full": "2012-Dec-09 05:03",
            "epoch_date_close_approach": 1355029380000,
            "relative_velocity": {
                "kilometers_per_second": "13.2024614336",
                "kilometers_per_hour": "47528.8611608477",
                "miles_per_hour": "29532.58598075"
            },
            "miss_distance": {
                "astronomical": "0.3425850957",
                "lunar": "133.2656022273",
                "kilometers": "51250000.610466159",
                "miles": "31845273.6943806342"
            },
            "orbiting_body": "Earth"
        },
        {
            "close_approach_date": "2019-06-03",
            "close_approach_date_full": "2019-Jun-03 22:40",
            "epoch_date_close_approach": 1559601600000,
            "relative_velocity": {
                "kilometers_per_second": "12.2822088691",
                "kilometers_per_hour": "44215.9519286272",
                "miles_per_hour": "27474.0730192072"
            },
            "miss_distance": {
                "astronomical": "0.4217158674",
                "lunar": "164.0474724186",
                "kilometers": "63087795.508242438",
                "miles": "39200938.3571561244"
            },
            "orbiting_body": "Earth"
        },
        {
            "close_approach_date": "2022-07-07",
            "close_approach_date_full": "2022-Jul-07 18:56",
            "epoch_date_close_approach": 1657220160000,
            "relative_velocity": {
                "kilometers_per_second": "11.337600569",
                "kilometers_per_hour": "40815.3620482877",
                "miles_per_hour": "25361.0787127263"
            },
            "miss_distance": {
                "astronomical": "0.4459564095",
                "lunar": "173.4770432955",
                "kilometers": "66714128.974047765",
                "miles": "41454237.485938557"
            },
            "orbiting_body": "Earth"
        },
        {
            "close_approach_date": "2022-11-29",
            "close_approach_date_full": "2022-Nov-29 20:00",
            "epoch_date_close_approach": 1669752000000,
            "relative_velocity": {
                "kilometers_per_second": "17.3036796327",
                "kilometers_per_hour": "62293.2466777855",
                "miles_per_hour": "38706.6009704273"
            },
            "miss_distance": {
                "astronomical": "0.4898793596",
                "lunar": "190.5630708844",
                "kilometers": "73284908.753124052",
                "miles": "45537130.7143818376"
            },
            "orbiting_body": "Earth"
        },
        {
            "close_approach_date": "2025-12-05",
            "close_approach_date_full": "2025-Dec-05 04:34",
            "epoch_date_close_approach": 1764909240000,
            "relative_velocity": {
                "kilometers_per_second": "12.3649187238",
                "kilometers_per_hour": "44513.707405639",
                "miles_per_hour": "27659.0866932427"
            },
            "miss_distance": {
                "astronomical": "0.2007370388",
                "lunar": "78.0867080932",
                "kilometers": "30029833.434587356",
                "miles": "18659673.2357072728"
            },
            "orbiting_body": "Earth"
        }
    ],
    "orbital_data": {
        "orbit_id": "1",
        "orbit_determination_date": "2019-06-05 07:42:07",
        "first_observation_date": "2019-05-26",
        "last_observation_date": "2019-06-05",
        "data_arc_in_days": 10,
        "observations_used": 22,
        "orbit_uncertainty": "8",
        "minimum_orbit_intersection": ".135562",
        "jupiter_tisserand_invariant": "4.967",
        "epoch_osculation": "2458634.5",
        "eccentricity": ".1295543953001054",
        "semi_major_axis": "1.27974274773773",
        "inclination": "23.56008791913616",
        "ascending_node_longitude": "73.04289082920521",
        "orbital_period": "528.7890368243949",
        "perihelion_distance": "1.113946449914873",
        "perihelion_argument": "337.8262032326298",
        "aphelion_distance": "1.445539045560587",
        "perihelion_time": "2458866.017110428356",
        "mean_anomaly": "202.3829657007686",
        "mean_motion": ".6808008013213634",
        "equinox": "J2000",
        "orbit_class": {
            "orbit_class_type": "AMO",
            "orbit_class_description": "Near-Earth asteroid orbits similar to that of 1221 Amor",
            "orbit_class_range": "1.017 AU < q (perihelion) < 1.3 AU"
        }
    },
    "is_sentry_object": false
}